{
 "generated_at": "2026-07-14T07:10:30Z",
 "sources": [
  {
   "name": "CelesTrak",
   "url": "https://celestrak.org/NORAD/elements/",
   "license": "frei verfügbar; Attribution. Ursprünglich USSPACECOM/Space-Track."
  },
  {
   "name": "GCAT (J. McDowell, planet4589.org)",
   "url": "https://planet4589.org/space/gcat/",
   "license": "CC-BY 4.0"
  }
 ],
 "satellites": [
  {
   "norad": 55974,
   "name": "TIANMU-1 04",
   "intl": "2023-039B",
   "group": "weather",
   "gcat": {
    "class": "B",
    "category": "MET",
    "owner": "TIANMU",
    "state": "CN"
   },
   "omm": {
    "OBJECT_NAME": "TIANMU-1 04",
    "OBJECT_ID": "2023-039B",
    "EPOCH": "2026-07-13T19:07:15.047616",
    "MEAN_MOTION": 15.48641235,
    "ECCENTRICITY": 0.0003142,
    "INCLINATION": 97.517,
    "RA_OF_ASC_NODE": 8.9794,
    "ARG_OF_PERICENTER": 18.5456,
    "MEAN_ANOMALY": 341.5908,
    "EPHEMERIS_TYPE": 0,
    "CLASSIFICATION_TYPE": "U",
    "NORAD_CAT_ID": 55974,
    "ELEMENT_SET_NO": 999,
    "REV_AT_EPOCH": 18496,
    "BSTAR": 0.00017642,
    "MEAN_MOTION_DOT": 0.00009331,
    "MEAN_MOTION_DDOT": 0
   }
  },
  {
   "norad": 55975,
   "name": "TIANMU-1 05",
   "intl": "2023-039C",
   "group": "weather",
   "gcat": {
    "class": "B",
    "category": "MET",
    "owner": "TIANMU",
    "state": "CN"
   },
   "omm": {
    "OBJECT_NAME": "TIANMU-1 05",
    "OBJECT_ID": "2023-039C",
    "EPOCH": "2026-07-13T19:11:42.281088",
    "MEAN_MOTION": 15.47941221,
    "ECCENTRICITY": 0.0003079,
    "INCLINATION": 97.5217,
    "RA_OF_ASC_NODE": 9.4317,
    "ARG_OF_PERICENTER": 49.4675,
    "MEAN_ANOMALY": 310.6843,
    "EPHEMERIS_TYPE": 0,
    "CLASSIFICATION_TYPE": "U",
    "NORAD_CAT_ID": 55975,
    "ELEMENT_SET_NO": 999,
    "REV_AT_EPOCH": 18493,
    "BSTAR": 0.00018251,
    "MEAN_MOTION_DOT": 0.00009423,
    "MEAN_MOTION_DDOT": 0
   }
  },
  {
   "norad": 55976,
   "name": "TIANMU-1 06",
   "intl": "2023-039D",
   "group": "weather",
   "gcat": {
    "class": "B",
    "category": "MET",
    "owner": "TIANMU",
    "state": "CN"
   },
   "omm": {
    "OBJECT_NAME": "TIANMU-1 06",
    "OBJECT_ID": "2023-039D",
    "EPOCH": "2026-07-13T19:14:34.968768",
    "MEAN_MOTION": 15.48538532,
    "ECCENTRICITY": 0.0003183,
    "INCLINATION": 97.5224,
    "RA_OF_ASC_NODE": 10.0966,
    "ARG_OF_PERICENTER": 41.2203,
    "MEAN_ANOMALY": 318.9287,
    "EPHEMERIS_TYPE": 0,
    "CLASSIFICATION_TYPE": "U",
    "NORAD_CAT_ID": 55976,
    "ELEMENT_SET_NO": 999,
    "REV_AT_EPOCH": 18496,
    "BSTAR": 0.00018398,
    "MEAN_MOTION_DOT": 0.000097,
    "MEAN_MOTION_DDOT": 0
   }
  },
  {
   "norad": 57399,
   "name": "TIANMU-1 07",
   "intl": "2023-101A",
   "group": "weather",
   "gcat": {
    "class": "B",
    "category": "MET",
    "owner": "TIANMU",
    "state": "CN"
   },
   "omm": {
    "OBJECT_NAME": "TIANMU-1 07",
    "OBJECT_ID": "2023-101A",
    "EPOCH": "2026-07-13T20:24:13.222656",
    "MEAN_MOTION": 15.30105993,
    "ECCENTRICITY": 0.000383,
    "INCLINATION": 97.2581,
    "RA_OF_ASC_NODE": 244.9087,
    "ARG_OF_PERICENTER": 67.4288,
    "MEAN_ANOMALY": 292.7358,
    "EPHEMERIS_TYPE": 0,
    "CLASSIFICATION_TYPE": "U",
    "NORAD_CAT_ID": 57399,
    "ELEMENT_SET_NO": 999,
    "REV_AT_EPOCH": 16572,
    "BSTAR": 0.00012925,
    "MEAN_MOTION_DOT": 0.00003692,
    "MEAN_MOTION_DDOT": 0
   }
  },
  {
   "norad": 57400,
   "name": "TIANMU-1 08",
   "intl": "2023-101B",
   "group": "weather",
   "gcat": {
    "class": "B",
    "category": "MET",
    "owner": "TIANMU",
    "state": "CN"
   },
   "omm": {
    "OBJECT_NAME": "TIANMU-1 08",
    "OBJECT_ID": "2023-101B",
    "EPOCH": "2026-07-13T21:10:15.206880",
    "MEAN_MOTION": 15.30110058,
    "ECCENTRICITY": 0.000473,
    "INCLINATION": 97.2569,
    "RA_OF_ASC_NODE": 244.7068,
    "ARG_OF_PERICENTER": 49.9965,
    "MEAN_ANOMALY": 310.1691,
    "EPHEMERIS_TYPE": 0,
    "CLASSIFICATION_TYPE": "U",
    "NORAD_CAT_ID": 57400,
    "ELEMENT_SET_NO": 999,
    "REV_AT_EPOCH": 16572,
    "BSTAR": 0.00013171,
    "MEAN_MOTION_DOT": 0.00003764,
    "MEAN_MOTION_DDOT": 0
   }
  },
  {
   "norad": 57401,
   "name": "TIANMU-1 09",
   "intl": "2023-101C",
   "group": "weather",
   "gcat": {
    "class": "B",
    "category": "MET",
    "owner": "TIANMU",
    "state": "CN"
   },
   "omm": {
    "OBJECT_NAME": "TIANMU-1 09",
    "OBJECT_ID": "2023-101C",
    "EPOCH": "2026-07-13T20:45:28.825344",
    "MEAN_MOTION": 15.30150599,
    "ECCENTRICITY": 0.0004431,
    "INCLINATION": 97.2527,
    "RA_OF_ASC_NODE": 244.0921,
    "ARG_OF_PERICENTER": 67.7763,
    "MEAN_ANOMALY": 292.3948,
    "EPHEMERIS_TYPE": 0,
    "CLASSIFICATION_TYPE": "U",
    "NORAD_CAT_ID": 57401,
    "ELEMENT_SET_NO": 999,
    "REV_AT_EPOCH": 16572,
    "BSTAR": 0.00013342,
    "MEAN_MOTION_DOT": 0.00003819,
    "MEAN_MOTION_DDOT": 0
   }
  },
  {
   "norad": 57402,
   "name": "TIANMU-1 10",
   "intl": "2023-101D",
   "group": "weather",
   "gcat": {
    "class": "B",
    "category": "MET",
    "owner": "TIANMU",
    "state": "CN"
   },
   "omm": {
    "OBJECT_NAME": "TIANMU-1 10",
    "OBJECT_ID": "2023-101D",
    "EPOCH": "2026-07-13T19:59:34.677600",
    "MEAN_MOTION": 15.30123963,
    "ECCENTRICITY": 0.0005762,
    "INCLINATION": 97.2607,
    "RA_OF_ASC_NODE": 245.1387,
    "ARG_OF_PERICENTER": 58.073,
    "MEAN_ANOMALY": 302.1071,
    "EPHEMERIS_TYPE": 0,
    "CLASSIFICATION_TYPE": "U",
    "NORAD_CAT_ID": 57402,
    "ELEMENT_SET_NO": 999,
    "REV_AT_EPOCH": 16571,
    "BSTAR": 0.00013558,
    "MEAN_MOTION_DOT": 0.00003879,
    "MEAN_MOTION_DDOT": 0
   }
  },
  {
   "norad": 58645,
   "name": "TIANMU-1 11",
   "intl": "2023-205A",
   "group": "weather",
   "gcat": {
    "class": "B",
    "category": "MET",
    "owner": "TIANMU",
    "state": "CN"
   },
   "omm": {
    "OBJECT_NAME": "TIANMU-1 11",
    "OBJECT_ID": "2023-205A",
    "EPOCH": "2026-07-13T20:28:20.521920",
    "MEAN_MOTION": 15.27255875,
    "ECCENTRICITY": 0.0006765,
    "INCLINATION": 97.3441,
    "RA_OF_ASC_NODE": 215.9949,
    "ARG_OF_PERICENTER": 268.1164,
    "MEAN_ANOMALY": 91.9301,
    "EPHEMERIS_TYPE": 0,
    "CLASSIFICATION_TYPE": "U",
    "NORAD_CAT_ID": 58645,
    "ELEMENT_SET_NO": 999,
    "REV_AT_EPOCH": 14159,
    "BSTAR": 0.00012216,
    "MEAN_MOTION_DOT": 0.0000319,
    "MEAN_MOTION_DDOT": 0
   }
  },
  {
   "norad": 58646,
   "name": "TIANMU-1 12",
   "intl": "2023-205B",
   "group": "weather",
   "gcat": {
    "class": "B",
    "category": "MET",
    "owner": "TIANMU",
    "state": "CN"
   },
   "omm": {
    "OBJECT_NAME": "TIANMU-1 12",
    "OBJECT_ID": "2023-205B",
    "EPOCH": "2026-07-13T19:48:23.029056",
    "MEAN_MOTION": 15.27087058,
    "ECCENTRICITY": 0.00057,
    "INCLINATION": 97.3429,
    "RA_OF_ASC_NODE": 215.7151,
    "ARG_OF_PERICENTER": 240.6641,
    "MEAN_ANOMALY": 119.4029,
    "EPHEMERIS_TYPE": 0,
    "CLASSIFICATION_TYPE": "U",
    "NORAD_CAT_ID": 58646,
    "ELEMENT_SET_NO": 999,
    "REV_AT_EPOCH": 14157,
    "BSTAR": 0.00012736,
    "MEAN_MOTION_DOT": 0.00003311,
    "MEAN_MOTION_DDOT": 0
   }
  },
  {
   "norad": 58647,
   "name": "TIANMU-1 13",
   "intl": "2023-205C",
   "group": "weather",
   "gcat": {
    "class": "B",
    "category": "MET",
    "owner": "TIANMU",
    "state": "CN"
   },
   "omm": {
    "OBJECT_NAME": "TIANMU-1 13",
    "OBJECT_ID": "2023-205C",
    "EPOCH": "2026-07-13T20:36:31.831200",
    "MEAN_MOTION": 15.27079874,
    "ECCENTRICITY": 0.0005658,
    "INCLINATION": 97.3457,
    "RA_OF_ASC_NODE": 216.0275,
    "ARG_OF_PERICENTER": 217.8478,
    "MEAN_ANOMALY": 142.2364,
    "EPHEMERIS_TYPE": 0,
    "CLASSIFICATION_TYPE": "U",
    "NORAD_CAT_ID": 58647,
    "ELEMENT_SET_NO": 999,
    "REV_AT_EPOCH": 14157,
    "BSTAR": 0.00012664,
    "MEAN_MOTION_DOT": 0.00003292,
    "MEAN_MOTION_DDOT": 0
   }
  }
 ]
}
